[{"OBJECT_NAME":"STARLINK-31163","OBJECT_ID":"2024-012W","EPOCH":"2026-03-09T07:38:30.535008","MEAN_MOTION":15.27571353,"ECCENTRICITY":0.00024937,"INCLINATION":43.0076,"RA_OF_ASC_NODE":166.9672,"ARG_OF_PERICENTER":302.1524,"MEAN_ANOMALY":57.9085,"EPHEMERIS_TYPE":0,"CLASSIFICATION_TYPE":"U","NORAD_CAT_ID":58807,"ELEMENT_SET_NO":999,"REV_AT_EPOCH":12118,"BSTAR":5.3004281e-5,"MEAN_MOTION_DOT":1.196e-5,"MEAN_MOTION_DDOT":0},{"OBJECT_NAME":"TITAN 4B R\/B","OBJECT_ID":"2005-016B","EPOCH":"2026-03-09T20:27:57.848832","MEAN_MOTION":15.42682045,"ECCENTRICITY":0.00616552,"INCLINATION":56.9964,"RA_OF_ASC_NODE":245.9411,"ARG_OF_PERICENTER":20.2929,"MEAN_ANOMALY":340.0555,"EPHEMERIS_TYPE":0,"CLASSIFICATION_TYPE":"U","NORAD_CAT_ID":28647,"ELEMENT_SET_NO":999,"REV_AT_EPOCH":37707,"BSTAR":0.00046483736,"MEAN_MOTION_DOT":0.0002164,"MEAN_MOTION_DDOT":0}]
